INTELSAT 701 (IS-701)   
1 22871U 93066A   17051.31477606 -.00000226  00000-0  00000+0 0  9992
2 22871   3.9751  67.6470 0004003 262.4418 264.1449  1.00272406 85220
INTELSAT 26 (IS-26)     
1 24732U 97007A   17051.93320278 -.00000002  00000-0  00000+0 0  9991
2 24732   7.2809  50.8797 0002985 302.1817 198.1504  1.00272637 73150
GALAXY 25 (G-25)        
1 24812U 97026A   17050.84206138 -.00000173  00000-0  00000+0 0  9997
2 24812   0.0243  91.6759 0004144 242.5527  25.7259  1.00285614 72225
INTELSAT 5 (IS-5)       
1 24916U 97046A   17051.34572118 -.00000150  00000-0  00000+0 0  9999
2 24916   3.3191  71.6896 0003948 247.6630 112.5470  1.00271990 71489
INTELSAT 805 (IS-805)   
1 25371U 98037A   17050.69631659 -.00000040  00000-0  00000+0 0  9997
2 25371   0.0517 287.1632 0003183  60.8185 221.4978  1.00272334 68420
AFRISTAR                
1 25515U 98063A   17051.75205189  .00000116  00000-0  00000+0 0  9992
2 25515   3.0753  70.0389 0004343 266.0254 106.5020  1.00274124 67002
INTELSAT 8 (IS-8)       
1 25522U 98065A   17051.20381647 -.00000138  00000-0  00000+0 0  9991
2 25522   0.7528  87.4243 0303845 219.4477 138.4142  0.95186340 66961
GALAXY 11 (G-11)        
1 26038U 99071A   17052.12614226  .00000128  00000-0  00000+0 0  9994
2 26038   0.0305 332.6940 0001419  51.2984 217.5947  1.00271296 62977
SIRIUS-1                
1 26390U 00035A   17051.55259220  .00000081  00000-0  00000+0 0  9990
2 26390  59.5510 228.7159 0001767 109.6296 246.6236  1.57877088 61697
INTELSAT 9 (IS-9)       
1 26451U 00043A   17051.25940191 -.00000280  00000-0  00000+0 0  9990
2 26451   3.3045  71.9174 0002788 264.0264 224.6933  1.00271072 60716
INTELSAT 12 (IS-12)     
1 26590U 00068A   17052.12614226  .00000128  00000-0  00000+0 0  9995
2 26590   0.2389  95.1439 0003047 260.7198 245.7512  1.00274019 59671
INTELSAT 1R (IS-1R)     
1 26608U 00072A   17050.49775281 -.00000156  00000-0  00000+0 0  9999
2 26608   0.0758  94.8256 0000726 168.8407 335.8261  0.99999023 59515
INTELSAT 10 (IS-10)     
1 26766U 01019A   17052.12630164  .00000117  00000-0  00000+0 0  9994
2 26766   1.2744  85.8002 0003215 220.2882 298.1113  1.00275305 57803
INTELSAT 901 (IS-901)   
1 26824U 01024A   17051.18098633 -.00000150  00000-0  00000+0 0  9997
2 26824   0.0500 290.1438 0002700  47.4829 219.7974  1.00271638 57468
INTELSAT 902 (IS-902)   
1 26900U 01039A   17050.99700948  .00000024  00000-0  00000+0 0  9994
2 26900   0.0185 120.1902 0003121 232.0456 218.8024  1.00271406 56633
DIRECTV 4S              
1 26985U 01052A   17051.33300609 -.00000122  00000-0  00000+0 0  9991
2 26985   0.0459 281.8845 0002236  66.9136 180.3234  1.00272215 55865
INTELSAT 904 (IS-904)   
1 27380U 02007A   17051.70640791  .00000041  00000-0  00000+0 0  9991
2 27380   0.0143 130.3169 0000848 134.5158 200.2753  1.00269710 54969
INTELSAT 903 (IS-903)   
1 27403U 02016A   17052.14972810 -.00000247  00000-0  00000+0 0  9995
2 27403   0.0121 107.9176 0003092 234.6286 188.0901  1.00272472 54526
DIRECTV 5 (TEMPO 1)     
1 27426U 02023A   17051.88638816 -.00000065  00000-0  00000+0 0  9991
2 27426   0.0099 121.3180 0003214 220.3388  18.3078  1.00273228 54183
INTELSAT 905 (IS-905)   
1 27438U 02027A   17052.14211079 -.00000193  00000-0  00000+0 0  9998
2 27438   0.0261 238.0523 0003182  72.7731 227.0741  1.00272518 53848
GALAXY 3C (G-3C)        
1 27445U 02030A   17050.84755714 -.00000160  00000-0  00000+0 0  9998
2 27445   0.0358 280.6740 0001671 166.0074 273.3128  1.00271773 53828
INTELSAT 906 (IS-906)   
1 27513U 02041A   17051.93335833  .00000006  00000-0  00000+0 0  9991
2 27513   0.0227 230.7996 0002930 115.3664 204.9992  1.00271746 52849
INTELSAT 907 (IS-907)   
1 27683U 03007A   17051.65751726 -.00000211  00000-0  00000+0 0  9993
2 27683   0.0330 237.6462 0003753  95.7673  26.5432  1.00271930 51268
GALAXY 12 (G-12)        
1 27715U 03013B   17051.45993027  .00000050  00000-0  00000+0 0  9996
2 27715   0.0668 275.3047 0001797  67.8500 203.9578  1.00273727 50875
GALAXY 23 (G-23)        
1 27854U 03034A   17051.55778657  .00000004  00000-0  00000+0 0  9993
2 27854   0.0111 120.1491 0002814 204.9974 265.3050  1.00271744 54410
GALAXY 13 (HORIZONS-1)  
1 27954U 03044A   17051.49028894  .00000039  00000-0  00000+0 0  9997
2 27954   0.0117 122.9321 0001407 129.2747 307.8732  1.00271057 49020
DIRECTV 7S              
1 28238U 04016A   17052.15604132 -.00000008  00000-0  00000+0 0  9999
2 28238   0.0172  30.4273 0002649 317.6620 100.2529  1.00273401 46940
INTELSAT 10-02          
1 28358U 04022A   17052.01298480 -.00000020  00000-0  00000+0 0  9993
2 28358   0.0134 143.7927 0000208   9.5319   1.4700  1.00271562 46507
XM-3 (RHYTHM)           
1 28626U 05008A   17051.47760490 -.00000214  00000-0  00000+0 0  9995
2 28626   0.0005  61.7190 0000303  23.7247 151.9610  1.00271783 43937
SPACEWAY 1              
1 28644U 05015A   17052.23260351 -.00000111  00000-0  00000+0 0  9995
2 28644   0.0395 285.9318 0000269 157.5210  48.6693  1.00273067 43398
DIRECTV 8               
1 28659U 05019A   17051.86075953 -.00000124  00000-0  00000+0 0  9999
2 28659   0.0205  89.8525 0003332 259.6786  10.4381  1.00272298 43061
GALAXY 28 (G-28)        
1 28702U 05022A   17051.14214866 -.00000194  00000-0  00000+0 0  9998
2 28702   0.0154 117.8816 0001871 280.9468  73.5952  1.00272797 42694
GALAXY 14 (G-14)        
1 28790U 05030A   17052.22348868  .00000028  00000-0  00000+0 0  9999
2 28790   0.0402 284.6609 0002357  55.7827 126.3118  1.00271610 42185
GALAXY 15 (G-15)        
1 28884U 05041A   17051.51156689  .00000070  00000-0  00000+0 0  9991
2 28884   0.0706 281.1332 0002145  59.3538 221.2674  1.00273548 41492
SPACEWAY 2              
1 28903U 05046B   17051.58242535 -.00000135  00000-0  00000+0 0  9994
2 28903   0.0046  40.7832 0000233 348.5598 231.9315  1.00272021 41361
GALAXY 16 (G-16)        
1 29236U 06023A   17051.58242535 -.00000136  00000-0  00000+0 0  9991
2 29236   0.0483 257.3753 0002576  82.0111 281.9512  1.00272803 39131
DIRECTV 9S              
1 29494U 06043A   17051.33300609 -.00000123  00000-0  00000+0 0  9995
2 29494   0.0162 124.1265 0003280 216.0721 189.0055  1.00272089 37975
XM-4 (BLUES)            
1 29520U 06049A   17052.21626910 -.00000032  00000-0  00000+0 0  9994
2 29520   0.0032 282.5210 0000220 224.0328 327.3972  1.00271969 37873
GALAXY 17 (G-17)        
1 31307U 07016B   17051.32540056 -.00000183  00000-0  00000+0 0  9999
2 31307   0.0422 303.6186 0003554  50.3464 182.5963  1.00270835 35941
DIRECTV 10              
1 31862U 07032A   17050.86902374 -.00000112  00000-0  00000+0 0  9998
2 31862   0.0486 294.3436 0000243 128.4069 297.2272  1.00273008 35279
SPACEWAY 3              
1 32018U 07036A   17052.20020858 -.00000160  00000-0  00000+0 0  9997
2 32018   0.0041  88.0878 0000097 345.4999  54.8162  1.00272384 35000
INTELSAT 11 (IS-11)     
1 32253U 07044B   17051.95317102 -.00000277  00000-0  00000+0 0  9998
2 32253   0.0305 222.1070 0002986 124.1540 104.9251  1.00271846 34403
HORIZONS-2              
1 32388U 07063B   17052.05611177 -.00000189  00000-0  00000+0 0  9991
2 32388   0.0110 117.9973 0002593 243.9547 254.2629  1.00264440 33757
DIRECTV 11              
1 32729U 08013A   17051.58242535 -.00000134  00000-0  00000+0 0  9991
2 32729   0.0005 305.2306 0000222 172.8275 143.1101  1.00269914 32803
GALAXY 18 (G-18)        
1 32951U 08024A   17050.92485149  .00000016  00000-0  00000+0 0  9995
2 32951   0.0242 107.8393 0003129 233.4226  18.7017  1.00272133 31959
INTELSAT 25 (IS-25)     
1 33153U 08034A   17051.66860456 -.00000233  00000-0  00000+0 0  9993
2 33153   0.0423 279.5628 0002563  39.8139  40.5801  1.00272363 31516
GALAXY 19 (G-19)        
1 33376U 08045A   17051.52797888 -.00000148  00000-0  00000+0 0  9990
2 33376   0.0068 143.8899 0003165 193.6225 266.1939  1.00273219 30704
SIRIUS FM-5             
1 35493U 09034A   17051.47636170 -.00000209  00000-0  00000+0 0  9999
2 35493   0.0246 108.9069 0001006 304.6225 182.4110  1.00269893 27846
INTELSAT 14 (IS-14)     
1 36097U 09064A   17049.71149968 -.00000284  00000-0  00000+0 0  9994
2 36097   0.0201 116.4845 0002227 223.5565  19.9503  1.00270055 26566
INTELSAT 15 (IS-15)     
1 36106U 09067A   17052.05611177 -.00000193  00000-0  00000+0 0  9994
2 36106   0.0126 118.3313 0002080 233.5434 264.6419  1.00266129 26479
DIRECTV 12              
1 36131U 09075A   17051.48310166 -.00000112  00000-0  00000+0 0  9992
2 36131   0.0378 283.5798 0000202 103.0992 195.0087  1.00272612 26250
INTELSAT 16 (IS-16)     
1 36397U 10006A   17051.49821014 -.00000294  00000-0  00000+0 0  9993
2 36397   0.0596 282.7911 0002736  80.3549 268.7063  1.00271451 25603
XM-5                    
1 37185U 10053A   17051.47760670 -.00000214  00000-0  00000+0 0  9991
2 37185   0.0139 110.6346 0000621 305.4448 181.2192  1.00272410 23317
INTELSAT 17 (IS-17)     
1 37238U 10065B   17052.05549920 -.00000010  00000-0  00000+0 0  9995
2 37238   0.0653 264.2656 0002690  68.8773 263.9833  1.00271967 22793
INTELSAT NEW DAWN       
1 37392U 11016A   17052.00657285  .00000147  00000-0  00000+0 0  9992
2 37392   0.0563 265.1942 0001083  27.4692 253.5843  1.00275558 21399
INTELSAT 18 (IS-18)     
1 37834U 11056A   17052.20710368  .00000045  00000-0  00000+0 0  9998
2 37834   0.0160 102.8736 0001749 236.5586  66.4376  1.00276300 19738
INTELSAT 22 (IS-22)     
1 38098U 12011A   17051.38163941 -.00000067  00000-0  00000+0 0  9995
2 38098   0.0233  49.1068 0002015 282.5489  28.3092  1.00272334 17927
INTELSAT 19 (IS-19)     
1 38356U 12030A   17050.12424546 -.00000067  00000-0  00000-0 0  9996
2 38356   0.0219 291.2691 0002908  41.9748  26.7152  1.00272265 16332
INTELSAT 20 (IS-20)     
1 38740U 12043A   17051.39165578 -.00000033  00000-0  00000+0 0  9996
2 38740   0.0215 124.7172 0001186  62.9181 172.3388  1.00272128 16708
INTELSAT 21 (IS-21)     
1 38749U 12045A   17050.74475785 -.00000294  00000-0  00000+0 0  9998
2 38749   0.0116 110.5114 0002029 231.8174  17.6391  1.00273450 16504
INTELSAT 23 (IS-23)     
1 38867U 12057A   17050.73088858 -.00000294  00000-0  00000+0 0  9992
2 38867   0.0540 277.3231 0001569  77.2696   5.3805  1.00268002 15978
SIRIUS FM-6             
1 39360U 13058A   17050.90588429 -.00000026  00000-0  00000+0 0  9994
2 39360   0.0213  88.8330 0000497  69.1137 202.0307  1.00270860 12210
INTELSAT 30 (IS-30)     
1 40271U 14062A   17052.15648958 -.00000160  00000-0  00000+0 0  9995
2 40271   0.0167 113.5633 0002079 351.3373   7.6378  1.00278039  8644
INTELSAT 34 (IS-34)     
1 40874U 15039A   17050.73789316 -.00000295  00000-0  00000+0 0  9994
2 40874   0.0126 135.1471 0001100  57.2143 167.6359  1.00271230  5547
INTELSAT 29E (IS-29E)   
1 41308U 16004A   17049.72532816 -.00000292  00000-0  00000-0 0  9996
2 41308   0.0522 278.2911 0001382  36.2843  45.3869  1.00272333  4041
INTELSAT 31 (IS-31)     
1 41581U 16035A   17050.84738312 -.00000160  00000-0  00000+0 0  9990
2 41581   0.0307 237.8066 0002602 328.3398 153.8157  1.00272734  2579
INTELSAT 36 (IS-36)     
1 41747U 16053A   17050.39443331 -.00000032  00000-0  00000+0 0  9996
2 41747   0.0128  82.7725 0002983 279.0140 358.1891  1.00264637  1838
INTELSAT 33E (IS-33E)   
1 41748U 16053B   17050.41786487  .00000040  00000-0  00000+0 0  9990
2 41748   0.0169 100.3298 0001636 234.1816  25.4551  1.00270836  2074
